{
"type": "FeatureCollection",
"name": "Rainfall Station",
"crs": { "type": "name", "properties": { "name": "urn:ogc:def:crs:OGC:1.3:CRS84" } },
"features": [
{ "type": "Feature", "properties": { "GmlID": "RF_Station.7678", "objectid": 7678, "station_id": "null", "lat": 29.49138889, "telemetry": 2, "agency_id": 121, "state_name": "Punjab", "state_code": "PB", "block_name": "Moonak", "block_code": "null", "basin_name": "Area of Inland drainage in Rajasthan Basin", "basin_code": "null", "sub_basin1": "null", "created_da": "5/29/2020", "remarks": 0.0, "remarks1": "null", "remarks2": "null", "remarks3": "null", "class": "null", "year": "null", "param": "null", "station_code": "SGR-05/65", "station_name": "KHANAURI", "station_type": "Surface Water", "agency_name": "Punjab Irrigation(New)", "district_name": "Sangrur", "district_code": "null", "sub_basin_name": "Area of Inland drainage in Rajasthan", "created_date": "5/29/2020", "station_data_type_new": "MPA", "long": 76.10416667 }, "geometry": { "type": "Point", "coordinates": [ 76.10416667, 29.49138889 ] } },
{ "type": "Feature", "properties": { "GmlID": "RF_Station.7701", "objectid": 7701, "station_id": "null", "lat": 29.80305556, "telemetry": 2, "agency_id": 121, "state_name": "Punjab", "state_code": "PB", "block_name": "Sardulgarh", "block_code": "null", "basin_name": "Indus (Up to border) Basin", "basin_code": "null", "sub_basin1": "null", "created_da": "5/30/2020", "remarks": 0.0, "remarks1": "null", "remarks2": "null", "remarks3": "null", "class": "null", "year": "null", "param": "null", "station_code": "MNS-03/59", "station_name": "JHUNIR (MAKHEWALI KOTHI)", "station_type": "Surface Water", "agency_name": "Punjab Irrigation(New)", "district_name": "Mansa", "district_code": "null", "sub_basin_name": "Ghaghar and others", "created_date": "5/30/2020", "station_data_type_new": "MPA", "long": 75.33861111 }, "geometry": { "type": "Point", "coordinates": [ 75.33861111, 29.80305556 ] } },
{ "type": "Feature", "properties": { "GmlID": "RF_Station.7702", "objectid": 7702, "station_id": "null", "lat": 29.8075, "telemetry": 2, "agency_id": 121, "state_name": "Punjab", "state_code": "PB", "block_name": "Sardulgarh", "block_code": "null", "basin_name": "Indus (Up to border) Basin", "basin_code": "null", "sub_basin1": "null", "created_da": "5/29/2020", "remarks": 0.0, "remarks1": "null", "remarks2": "null", "remarks3": "null", "class": "null", "year": "null", "param": "null", "station_code": "MNS-04/60", "station_name": "KHUSLA", "station_type": "Surface Water", "agency_name": "Punjab Irrigation(New)", "district_name": "Mansa", "district_code": "null", "sub_basin_name": "Ghaghar and others", "created_date": "5/29/2020", "station_data_type_new": "MPA", "long": 75.25888889 }, "geometry": { "type": "Point", "coordinates": [ 75.25888889, 29.8075 ] } },
{ "type": "Feature", "properties": { "GmlID": "RF_Station.7708", "objectid": 7708, "station_id": "null", "lat": 29.84611111, "telemetry": 2, "agency_id": 121, "state_name": "Punjab", "state_code": "PB", "block_name": "Budhlada", "block_code": "null", "basin_name": "Indus (Up to border) Basin", "basin_code": "null", "sub_basin1": "null", "created_da": "11/22/2019", "remarks": 0.0, "remarks1": "null", "remarks2": "null", "remarks3": "null", "class": "null", "year": "null", "param": "null", "station_code": "MNS-01/57", "station_name": "SANGREHI KOTHI", "station_type": "Surface Water", "agency_name": "Punjab Irrigation(New)", "district_name": "Mansa", "district_code": "null", "sub_basin_name": "Ghaghar and others", "created_date": "11/22/2019", "station_data_type_new": "MPA", "long": 75.6625 }, "geometry": { "type": "Point", "coordinates": [ 75.6625, 29.84611111 ] } },
{ "type": "Feature", "properties": { "GmlID": "RF_Station.7712", "objectid": 7712, "station_id": "null", "lat": 29.87694444, "telemetry": 2, "agency_id": 121, "state_name": "Punjab", "state_code": "PB", "block_name": "Budhlada", "block_code": "null", "basin_name": "Indus (Up to border) Basin", "basin_code": "null", "sub_basin1": "null", "created_da": "5/29/2020", "remarks": 0.0, "remarks1": "null", "remarks2": "null", "remarks3": "null", "class": "null", "year": "null", "param": "null", "station_code": "MNS-02/58", "station_name": "RAMNAGAR BHATHAL", "station_type": "Surface Water", "agency_name": "Punjab Irrigation(New)", "district_name": "Mansa", "district_code": "null", "sub_basin_name": "Ghaghar and others", "created_date": "5/29/2020", "station_data_type_new": "MPA", "long": 75.52361111 }, "geometry": { "type": "Point", "coordinates": [ 75.52361111, 29.87694444 ] } },
{ "type": "Feature", "properties": { "GmlID": "RF_Station.7713", "objectid": 7713, "station_id": "null", "lat": 29.88805556, "telemetry": 2, "agency_id": 121, "state_name": "Punjab", "state_code": "PB", "block_name": "Sangrur", "block_code": "null", "basin_name": "Indus (Up to border) Basin", "basin_code": "null", "sub_basin1": "null", "created_da": "5/29/2020", "remarks": 0.0, "remarks1": "null", "remarks2": "null", "remarks3": "null", "class": "null", "year": "null", "param": "null", "station_code": "SGR-06/66", "station_name": "LEHAL KALAN", "station_type": "Surface Water", "agency_name": "Punjab Irrigation(New)", "district_name": "Sangrur", "district_code": "null", "sub_basin_name": "Ghaghar and others", "created_date": "5/29/2020", "station_data_type_new": "MPA", "long": 75.84638889 }, "geometry": { "type": "Point", "coordinates": [ 75.84638889, 29.88805556 ] } },
{ "type": "Feature", "properties": { "GmlID": "RF_Station.7722", "objectid": 7722, "station_id": "null", "lat": 29.9675, "telemetry": 1, "agency_id": 121, "state_name": "Punjab", "state_code": "PB", "block_name": "Mansa", "block_code": "null", "basin_name": "Indus (Up to border) Basin", "basin_code": "null", "sub_basin1": "null", "created_da": "1/25/2021", "remarks": null, "remarks1": "null", "remarks2": "null", "remarks3": "null", "class": "null", "year": "null", "param": "null", "station_code": "PBSW0003", "station_name": "Jawaharke", "station_type": "Surface Water", "agency_name": "Punjab Irrigation(New)", "district_name": "Mansa", "district_code": "null", "sub_basin_name": "Ghaghar and others", "created_date": "1/25/2021", "station_data_type_new": "GWS,GTA,GHS,GBD,GPC,GPR,GOR,GW2", "long": 75.39583333 }, "geometry": { "type": "Point", "coordinates": [ 75.39583333, 29.9675 ] } },
{ "type": "Feature", "properties": { "GmlID": "RF_Station.7724", "objectid": 7724, "station_id": "null", "lat": 29.96027778, "telemetry": 2, "agency_id": 121, "state_name": "Punjab", "state_code": "PB", "block_name": "Malout", "block_code": "null", "basin_name": "Indus (Up to border) Basin", "basin_code": "null", "sub_basin1": "null", "created_da": "12/18/2019", "remarks": 0.0, "remarks1": "null", "remarks2": "null", "remarks3": "null", "class": "null", "year": "null", "param": "null", "station_code": "MKT-03/47", "station_name": "KANDU KHERA", "station_type": "Surface Water", "agency_name": "Punjab Irrigation(New)", "district_name": "Mukatsar", "district_code": "null", "sub_basin_name": "Sutlaj Lower", "created_date": "12/18/2019", "station_data_type_new": "MPA", "long": 74.45888889 }, "geometry": { "type": "Point", "coordinates": [ 74.45888889, 29.96027778 ] } },
{ "type": "Feature", "properties": { "GmlID": "RF_Station.7728", "objectid": 7728, "station_id": "null", "lat": 29.99638889, "telemetry": 2, "agency_id": 121, "state_name": "Punjab", "state_code": "PB", "block_name": "Talwandi Sabo", "block_code": "null", "basin_name": "Indus (Up to border) Basin", "basin_code": "null", "sub_basin1": "null", "created_da": "5/29/2020", "remarks": 0.0, "remarks1": "null", "remarks2": "null", "remarks3": "null", "class": "null", "year": "null", "param": "null", "station_code": "BTD-06/55", "station_name": "TALWANDI SABO", "station_type": "Surface Water", "agency_name": "Punjab Irrigation(New)", "district_name": "Bathinda", "district_code": "null", "sub_basin_name": "Sutlaj Lower", "created_date": "5/29/2020", "station_data_type_new": "MPA", "long": 75.07972222 }, "geometry": { "type": "Point", "coordinates": [ 75.07972222, 29.99638889 ] } },
{ "type": "Feature", "properties": { "GmlID": "RF_Station.7731", "objectid": 7731, "station_id": "null", "lat": 30.04138889, "telemetry": 2, "agency_id": 121, "state_name": "Punjab", "state_code": "PB", "block_name": "Patiala", "block_code": "null", "basin_name": "Indus (Up to border) Basin", "basin_code": "null", "sub_basin1": "null", "created_da": "5/29/2020", "remarks": 0.0, "remarks1": "null", "remarks2": "null", "remarks3": "null", "class": "null", "year": "null", "param": "null", "station_code": "PTL-02/68", "station_name": "DEHDNA", "station_type": "Surface Water", "agency_name": "Punjab Irrigation(New)", "district_name": "Patiala", "district_code": "null", "sub_basin_name": "Ghaghar and others", "created_date": "5/29/2020", "station_data_type_new": "MPA", "long": 76.13361111 }, "geometry": { "type": "Point", "coordinates": [ 76.13361111, 30.04138889 ] } },
{ "type": "Feature", "properties": { "GmlID": "RF_Station.7740", "objectid": 7740, "station_id": "null", "lat": 30.09305556, "telemetry": 2, "agency_id": 121, "state_name": "Punjab", "state_code": "PB", "block_name": "Maur", "block_code": "null", "basin_name": "Indus (Up to border) Basin", "basin_code": "null", "sub_basin1": "null", "created_da": "5/29/2020", "remarks": 0.0, "remarks1": "null", "remarks2": "null", "remarks3": "null", "class": "null", "year": "null", "param": "null", "station_code": "BTD-05/54", "station_name": "RAMNAGAR MAUR", "station_type": "Surface Water", "agency_name": "Punjab Irrigation(New)", "district_name": "Bathinda", "district_code": "null", "sub_basin_name": "Sutlaj Lower", "created_date": "5/29/2020", "station_data_type_new": "MPA", "long": 75.22972222 }, "geometry": { "type": "Point", "coordinates": [ 75.22972222, 30.09305556 ] } },
{ "type": "Feature", "properties": { "GmlID": "RF_Station.7743", "objectid": 7743, "station_id": "null", "lat": 30.11111111, "telemetry": 2, "agency_id": 121, "state_name": "Punjab", "state_code": "PB", "block_name": "Bathinda", "block_code": "null", "basin_name": "Indus (Up to border) Basin", "basin_code": "null", "sub_basin1": "null", "created_da": "5/29/2020", "remarks": 0.0, "remarks1": "null", "remarks2": "null", "remarks3": "null", "class": "null", "year": "null", "param": "null", "station_code": "BTD-04/53", "station_name": "NANDGARH", "station_type": "Surface Water", "agency_name": "Punjab Irrigation(New)", "district_name": "Bathinda", "district_code": "null", "sub_basin_name": "Sutlaj Lower", "created_date": "5/29/2020", "station_data_type_new": "MPA", "long": 74.76027778 }, "geometry": { "type": "Point", "coordinates": [ 74.76027778, 30.11111111 ] } },
{ "type": "Feature", "properties": { "GmlID": "RF_Station.7744", "objectid": 7744, "station_id": "null", "lat": 30.12861111, "telemetry": 2, "agency_id": 121, "state_name": "Punjab", "state_code": "PB", "block_name": "Bathinda", "block_code": "null", "basin_name": "Indus (Up to border) Basin", "basin_code": "null", "sub_basin1": "null", "created_da": "12/22/2019", "remarks": 0.0, "remarks1": "null", "remarks2": "null", "remarks3": "null", "class": "null", "year": "null", "param": "null", "station_code": "BTD-03/52", "station_name": "RAIKE", "station_type": "Surface Water", "agency_name": "Punjab Irrigation(New)", "district_name": "Bathinda", "district_code": "null", "sub_basin_name": "Sutlaj Lower", "created_date": "12/22/2019", "station_data_type_new": "MPA", "long": 74.68805556 }, "geometry": { "type": "Point", "coordinates": [ 74.68805556, 30.12861111 ] } },
{ "type": "Feature", "properties": { "GmlID": "RF_Station.7746", "objectid": 7746, "station_id": "null", "lat": 30.1407459, "telemetry": 1, "agency_id": 121, "state_name": "Punjab", "state_code": "PB", "block_name": "Abohar", "block_code": "null", "basin_name": "Indus (Up to border) Basin", "basin_code": "null", "sub_basin1": "null", "created_da": "1/25/2021", "remarks": null, "remarks1": "null", "remarks2": "null", "remarks3": "null", "class": "null", "year": "null", "param": "null", "station_code": "PBSW0005", "station_name": "Abohar", "station_type": "Surface Water", "agency_name": "Punjab Irrigation(New)", "district_name": "Ferozepur", "district_code": "null", "sub_basin_name": "Sutlaj Lower", "created_date": "1/25/2021", "station_data_type_new": "GTA,GWS,GW2,GOR,GPR,GPC,GBD,GHS", "long": 74.2077789 }, "geometry": { "type": "Point", "coordinates": [ 74.2077789, 30.1407459 ] } },
{ "type": "Feature", "properties": { "GmlID": "RF_Station.7747", "objectid": 7747, "station_id": "null", "lat": 30.14194444, "telemetry": 2, "agency_id": 121, "state_name": "Punjab", "state_code": "PB", "block_name": "Abohar", "block_code": "null", "basin_name": "Indus (Up to border) Basin", "basin_code": "null", "sub_basin1": "null", "created_da": "12/18/2019", "remarks": 0.0, "remarks1": "null", "remarks2": "null", "remarks3": "null", "class": "null", "year": "null", "param": "null", "station_code": "FZL-03/44", "station_name": "ABOHAR", "station_type": "Surface Water", "agency_name": "Punjab Irrigation(New)", "district_name": "Fazilka", "district_code": "null", "sub_basin_name": "Sutlaj Lower", "created_date": "12/18/2019", "station_data_type_new": "MPA", "long": 74.20722222000001 }, "geometry": { "type": "Point", "coordinates": [ 74.20722222, 30.14194444 ] } },
{ "type": "Feature", "properties": { "GmlID": "RF_Station.7753", "objectid": 7753, "station_id": "null", "lat": 30.2125, "telemetry": 2, "agency_id": 121, "state_name": "Punjab", "state_code": "PB", "block_name": "Giddarbaha", "block_code": "null", "basin_name": "Indus (Up to border) Basin", "basin_code": "null", "sub_basin1": "null", "created_da": "5/30/2020", "remarks": 0.0, "remarks1": "null", "remarks2": "null", "remarks3": "null", "class": "null", "year": "null", "param": "null", "station_code": "MKT-02/46", "station_name": "GIDDERBAHA", "station_type": "Surface Water", "agency_name": "Punjab Irrigation(New)", "district_name": "Mukatsar", "district_code": "null", "sub_basin_name": "Sutlaj Lower", "created_date": "5/30/2020", "station_data_type_new": "MPA", "long": 74.64722222 }, "geometry": { "type": "Point", "coordinates": [ 74.64722222, 30.2125 ] } },
{ "type": "Feature", "properties": { "GmlID": "RF_Station.7754", "objectid": 7754, "station_id": "null", "lat": 30.2130001, "telemetry": 1, "agency_id": 121, "state_name": "Punjab", "state_code": "PB", "block_name": "Giddarbaha", "block_code": "null", "basin_name": "Indus (Up to border) Basin", "basin_code": "null", "sub_basin1": "null", "created_da": "1/25/2021", "remarks": null, "remarks1": "null", "remarks2": "null", "remarks3": "null", "class": "null", "year": "null", "param": "null", "station_code": "PBSW0004", "station_name": "Gidderbaha", "station_type": "Surface Water", "agency_name": "Punjab Irrigation(New)", "district_name": "Mukatsar", "district_code": "null", "sub_basin_name": "Sutlaj Lower", "created_date": "1/25/2021", "station_data_type_new": "GOR,GW2,GWS,GBD,GHS,GTA,GPC,GPR", "long": 74.6459999 }, "geometry": { "type": "Point", "coordinates": [ 74.6459999, 30.2130001 ] } },
{ "type": "Feature", "properties": { "GmlID": "RF_Station.7756", "objectid": 7756, "station_id": "null", "lat": 30.26305556, "telemetry": 2, "agency_id": 121, "state_name": "Punjab", "state_code": "PB", "block_name": "Sangrur", "block_code": "null", "basin_name": "Indus (Up to border) Basin", "basin_code": "null", "sub_basin1": "null", "created_da": "5/29/2020", "remarks": 0.0, "remarks1": "null", "remarks2": "null", "remarks3": "null", "class": "null", "year": "null", "param": "null", "station_code": "SGR-04/64", "station_name": "BALAD KOTHI", "station_type": "Surface Water", "agency_name": "Punjab Irrigation(New)", "district_name": "Sangrur", "district_code": "null", "sub_basin_name": "Ghaghar and others", "created_date": "5/29/2020", "station_data_type_new": "MPA", "long": 76.06361111 }, "geometry": { "type": "Point", "coordinates": [ 76.06361111, 30.26305556 ] } },
{ "type": "Feature", "properties": { "GmlID": "RF_Station.7759", "objectid": 7759, "station_id": "null", "lat": 30.26416667, "telemetry": 2, "agency_id": 121, "state_name": "Punjab", "state_code": "PB", "block_name": "Rampura Phul", "block_code": "null", "basin_name": "Indus (Up to border) Basin", "basin_code": "null", "sub_basin1": "null", "created_da": "8/25/2020", "remarks": null, "remarks1": "null", "remarks2": "null", "remarks3": "null", "class": "null", "year": "null", "param": "null", "station_code": "BTD-01/56", "station_name": "RAMPURA", "station_type": "Surface Water", "agency_name": "Punjab Irrigation(New)", "district_name": "Bathinda", "district_code": "null", "sub_basin_name": "Sutlaj Lower", "created_date": "8/25/2020", "station_data_type_new": "MPA", "long": 75.2275 }, "geometry": { "type": "Point", "coordinates": [ 75.2275, 30.26416667 ] } },
{ "type": "Feature", "properties": { "GmlID": "RF_Station.7760", "objectid": 7760, "station_id": "null", "lat": 30.26611111, "telemetry": 1, "agency_id": 41, "state_name": "Punjab", "state_code": "PB", "block_name": "Rampura Phul", "block_code": "null", "basin_name": "Indus (Up to border) Basin", "basin_code": "null", "sub_basin1": "null", "created_da": "8/12/2017", "remarks": 0.0, "remarks1": "null", "remarks2": "null", "remarks3": "null", "class": "null", "year": "null", "param": "null", "station_code": "BTD-01/50", "station_name": "RAMPURA", "station_type": "Surface Water", "agency_name": "CWC", "district_name": "Bathinda", "district_code": "null", "sub_basin_name": "Sutlaj Lower", "created_date": "8/12/2017", "station_data_type_new": "MPM", "long": 75.22944444 }, "geometry": { "type": "Point", "coordinates": [ 75.22944444, 30.26611111 ] } },
{ "type": "Feature", "properties": { "GmlID": "RF_Station.7762", "objectid": 7762, "station_id": "null", "lat": 30.26416667, "telemetry": 2, "agency_id": 121, "state_name": "Punjab", "state_code": "PB", "block_name": "Bathinda", "block_code": "null", "basin_name": "Indus (Up to border) Basin", "basin_code": "null", "sub_basin1": "null", "created_da": "12/16/2019", "remarks": 0.0, "remarks1": "null", "remarks2": "null", "remarks3": "null", "class": "null", "year": "null", "param": "null", "station_code": "BTD-02/51", "station_name": "BIBIWALA", "station_type": "Surface Water", "agency_name": "Punjab Irrigation(New)", "district_name": "Bathinda", "district_code": "null", "sub_basin_name": "Sutlaj Lower", "created_date": "12/16/2019", "station_data_type_new": "MPA", "long": 74.99583333 }, "geometry": { "type": "Point", "coordinates": [ 74.99583333, 30.26416667 ] } },
{ "type": "Feature", "properties": { "GmlID": "RF_Station.7763", "objectid": 7763, "station_id": "null", "lat": 30.30944444, "telemetry": 2, "agency_id": 121, "state_name": "Punjab", "state_code": "PB", "block_name": "Sangrur", "block_code": "null", "basin_name": "Indus (Up to border) Basin", "basin_code": "null", "sub_basin1": "null", "created_da": "5/29/2020", "remarks": 0.0, "remarks1": "null", "remarks2": "null", "remarks3": "null", "class": "null", "year": "null", "param": "null", "station_code": "SGR-03/63", "station_name": "LADDA KOTHI", "station_type": "Surface Water", "agency_name": "Punjab Irrigation(New)", "district_name": "Sangrur", "district_code": "null", "sub_basin_name": "Sutlaj Lower", "created_date": "5/29/2020", "station_data_type_new": "MPA", "long": 75.84222222 }, "geometry": { "type": "Point", "coordinates": [ 75.84222222, 30.30944444 ] } },
{ "type": "Feature", "properties": { "GmlID": "RF_Station.7765", "objectid": 7765, "station_id": "null", "lat": 30.34777778, "telemetry": 2, "agency_id": 121, "state_name": "Punjab", "state_code": "PB", "block_name": "Raikot", "block_code": "null", "basin_name": "Indus (Up to border) Basin", "basin_code": "null", "sub_basin1": "null", "created_da": "5/29/2020", "remarks": 0.0, "remarks1": "null", "remarks2": "null", "remarks3": "null", "class": "null", "year": "null", "param": "null", "station_code": "PTL-03/69", "station_name": "SEEL", "station_type": "Surface Water", "agency_name": "Punjab Irrigation(New)", "district_name": "Ludhiana", "district_code": "null", "sub_basin_name": "Ghaghar and others", "created_date": "5/29/2020", "station_data_type_new": "MPA", "long": 76.60027778 }, "geometry": { "type": "Point", "coordinates": [ 76.60027778, 30.34777778 ] } },
{ "type": "Feature", "properties": { "GmlID": "RF_Station.7774", "objectid": 7774, "station_id": "null", "lat": 30.41333333, "telemetry": 2, "agency_id": 121, "state_name": "Punjab", "state_code": "PB", "block_name": "Dhuri", "block_code": "null", "basin_name": "Indus (Up to border) Basin", "basin_code": "null", "sub_basin1": "null", "created_da": "5/30/2020", "remarks": 0.0, "remarks1": "null", "remarks2": "null", "remarks3": "null", "class": "null", "year": "null", "param": "null", "station_code": "SGR-01/61", "station_name": "BABANPUR", "station_type": "Surface Water", "agency_name": "Punjab Irrigation(New)", "district_name": "Sangrur", "district_code": "null", "sub_basin_name": "Sutlaj Lower", "created_date": "5/30/2020", "station_data_type_new": "MPA", "long": 75.87777778 }, "geometry": { "type": "Point", "coordinates": [ 75.87777778, 30.41333333 ] } },
{ "type": "Feature", "properties": { "GmlID": "RF_Station.7776", "objectid": 7776, "station_id": "null", "lat": 30.43694444, "telemetry": 2, "agency_id": 121, "state_name": "Punjab", "state_code": "PB", "block_name": "Barnala", "block_code": "null", "basin_name": "Indus (Up to border) Basin", "basin_code": "null", "sub_basin1": "null", "created_da": "5/29/2020", "remarks": 0.0, "remarks1": "null", "remarks2": "null", "remarks3": "null", "class": "null", "year": "null", "param": "null", "station_code": "BRL-01/56", "station_name": "SEHNA", "station_type": "Surface Water", "agency_name": "Punjab Irrigation(New)", "district_name": "Barnala", "district_code": "null", "sub_basin_name": "Sutlaj Lower", "created_date": "5/29/2020", "station_data_type_new": "MPA", "long": 75.37833333 }, "geometry": { "type": "Point", "coordinates": [ 75.37833333, 30.43694444 ] } },
{ "type": "Feature", "properties": { "GmlID": "RF_Station.7778", "objectid": 7778, "station_id": "null", "lat": 30.41333333, "telemetry": 2, "agency_id": 121, "state_name": "Punjab", "state_code": "PB", "block_name": "Fazilka", "block_code": "null", "basin_name": "Indus (Up to border) Basin", "basin_code": "null", "sub_basin1": "null", "created_da": "12/18/2019", "remarks": 0.0, "remarks1": "null", "remarks2": "null", "remarks3": "null", "class": "null", "year": "null", "param": "null", "station_code": "fzl-02/43", "station_name": "FAZILKA", "station_type": "Surface Water", "agency_name": "Punjab Irrigation(New)", "district_name": "Fazilka", "district_code": "null", "sub_basin_name": "Sutlaj Lower", "created_date": "12/18/2019", "station_data_type_new": "MPA", "long": 74.03111111 }, "geometry": { "type": "Point", "coordinates": [ 74.03111111, 30.41333333 ] } },
{ "type": "Feature", "properties": { "GmlID": "RF_Station.7784", "objectid": 7784, "station_id": "null", "lat": 30.46777778, "telemetry": 2, "agency_id": 121, "state_name": "Punjab", "state_code": "PB", "block_name": "Muktsar", "block_code": "null", "basin_name": "Indus (Up to border) Basin", "basin_code": "null", "sub_basin1": "null", "created_da": "12/18/2019", "remarks": 0.0, "remarks1": "null", "remarks2": "null", "remarks3": "null", "class": "null", "year": "null", "param": "null", "station_code": "MKT-01/45", "station_name": "MUKATSAR SAHIB", "station_type": "Surface Water", "agency_name": "Punjab Irrigation(New)", "district_name": "Mukatsar", "district_code": "null", "sub_basin_name": "Sutlaj Lower", "created_date": "12/18/2019", "station_data_type_new": "MPA", "long": 74.52638889000001 }, "geometry": { "type": "Point", "coordinates": [ 74.52638889, 30.46777778 ] } },
{ "type": "Feature", "properties": { "GmlID": "RF_Station.7787", "objectid": 7787, "station_id": "null", "lat": 30.53416667, "telemetry": 2, "agency_id": 121, "state_name": "Punjab", "state_code": "PB", "block_name": "Dhuri", "block_code": "null", "basin_name": "Indus (Up to border) Basin", "basin_code": "null", "sub_basin1": "null", "created_da": "5/29/2020", "remarks": 0.0, "remarks1": "null", "remarks2": "null", "remarks3": "null", "class": "null", "year": "null", "param": "null", "station_code": "SGR-02/62", "station_name": "BUGRA", "station_type": "Surface Water", "agency_name": "Punjab Irrigation(New)", "district_name": "Sangrur", "district_code": "null", "sub_basin_name": "Sutlaj Lower", "created_date": "5/29/2020", "station_data_type_new": "MPA", "long": 75.77944444000001 }, "geometry": { "type": "Point", "coordinates": [ 75.77944444, 30.53416667 ] } },
{ "type": "Feature", "properties": { "GmlID": "RF_Station.7788", "objectid": 7788, "station_id": "null", "lat": 30.55777778, "telemetry": 2, "agency_id": 121, "state_name": "Punjab", "state_code": "PB", "block_name": "Dera Bassi", "block_code": "null", "basin_name": "Indus (Up to border) Basin", "basin_code": "null", "sub_basin1": "null", "created_da": "5/30/2020", "remarks": 0.0, "remarks1": "null", "remarks2": "null", "remarks3": "null", "class": "null", "year": "null", "param": "null", "station_code": "SAS-04/29", "station_name": "BANUR", "station_type": "Surface Water", "agency_name": "Punjab Irrigation(New)", "district_name": "Mohali", "district_code": "null", "sub_basin_name": "Ghaghar and others", "created_date": "5/30/2020", "station_data_type_new": "MPA", "long": 76.72111111 }, "geometry": { "type": "Point", "coordinates": [ 76.72111111, 30.55777778 ] } },
{ "type": "Feature", "properties": { "GmlID": "RF_Station.7790", "objectid": 7790, "station_id": "null", "lat": 30.52805556, "telemetry": 2, "agency_id": 121, "state_name": "Punjab", "state_code": "PB", "block_name": "Jaito", "block_code": "null", "basin_name": "Indus (Up to border) Basin", "basin_code": "null", "sub_basin1": "null", "created_da": "12/18/2019", "remarks": 0.0, "remarks1": "null", "remarks2": "null", "remarks3": "null", "class": "null", "year": "null", "param": "null", "station_code": "FDK-02/49", "station_name": "DHAIPAI", "station_type": "Surface Water", "agency_name": "Punjab Irrigation(New)", "district_name": "Faridkot", "district_code": "null", "sub_basin_name": "Sutlaj Lower", "created_date": "12/18/2019", "station_data_type_new": "MPA", "long": 74.84888889 }, "geometry": { "type": "Point", "coordinates": [ 74.84888889, 30.52805556 ] } },
{ "type": "Feature", "properties": { "GmlID": "RF_Station.7793", "objectid": 7793, "station_id": "null", "lat": 30.57666667, "telemetry": 2, "agency_id": 121, "state_name": "Punjab", "state_code": "PB", "block_name": "Khanna", "block_code": "null", "basin_name": "Indus (Up to border) Basin", "basin_code": "null", "sub_basin1": "null", "created_da": "5/30/2020", "remarks": 0.0, "remarks1": "null", "remarks2": "null", "remarks3": "null", "class": "null", "year": "null", "param": "null", "station_code": "LDH-03/36", "station_name": "BHARTHLA", "station_type": "Surface Water", "agency_name": "Punjab Irrigation(New)", "district_name": "Ludhiana", "district_code": "null", "sub_basin_name": "Sutlaj Lower", "created_date": "5/30/2020", "station_data_type_new": "MPA", "long": 76.07277778 }, "geometry": { "type": "Point", "coordinates": [ 76.07277778, 30.57666667 ] } },
{ "type": "Feature", "properties": { "GmlID": "RF_Station.7795", "objectid": 7795, "station_id": "null", "lat": 30.61138889, "telemetry": 2, "agency_id": 121, "state_name": "Punjab", "state_code": "PB", "block_name": "Fatehgarh", "block_code": "null", "basin_name": "Indus (Up to border) Basin", "basin_code": "null", "sub_basin1": "null", "created_da": "12/18/2019", "remarks": 0.0, "remarks1": "null", "remarks2": "null", "remarks3": "null", "class": "null", "year": "null", "param": "null", "station_code": "FGS-02/33", "station_name": "SAUNDHA", "station_type": "Surface Water", "agency_name": "Punjab Irrigation(New)", "district_name": "Fatehgarh Sahib", "district_code": "null", "sub_basin_name": "Ghaghar and others", "created_date": "12/18/2019", "station_data_type_new": "MPA", "long": 76.3325 }, "geometry": { "type": "Point", "coordinates": [ 76.3325, 30.61138889 ] } },
{ "type": "Feature", "properties": { "GmlID": "RF_Station.7798", "objectid": 7798, "station_id": "null", "lat": 30.61194444, "telemetry": 2, "agency_id": 121, "state_name": "Punjab", "state_code": "PB", "block_name": "Nabha", "block_code": "null", "basin_name": "Indus (Up to border) Basin", "basin_code": "null", "sub_basin1": "null", "created_da": "5/29/2020", "remarks": 0.0, "remarks1": "null", "remarks2": "null", "remarks3": "null", "class": "null", "year": "null", "param": "null", "station_code": "PTL-01/67", "station_name": "ALLOWAL", "station_type": "Surface Water", "agency_name": "Punjab Irrigation(New)", "district_name": "Patiala", "district_code": "null", "sub_basin_name": "Ghaghar and others", "created_date": "5/29/2020", "station_data_type_new": "MPA", "long": 76.33361111000001 }, "geometry": { "type": "Point", "coordinates": [ 76.33361111, 30.61194444 ] } },
{ "type": "Feature", "properties": { "GmlID": "RF_Station.7804", "objectid": 7804, "station_id": "null", "lat": 30.64333333, "telemetry": 2, "agency_id": 121, "state_name": "Punjab", "state_code": "PB", "block_name": "Raikot", "block_code": "null", "basin_name": "Indus (Up to border) Basin", "basin_code": "null", "sub_basin1": "null", "created_da": "12/18/2019", "remarks": 0.0, "remarks1": "null", "remarks2": "null", "remarks3": "null", "class": "null", "year": "null", "param": "null", "station_code": "FZL-01/42", "station_name": "AMIR KHAS", "station_type": "Surface Water", "agency_name": "Punjab Irrigation(New)", "district_name": "Ludhiana", "district_code": "null", "sub_basin_name": "Sutlaj Lower", "created_date": "12/18/2019", "station_data_type_new": "MPA", "long": 74.27055556000001 }, "geometry": { "type": "Point", "coordinates": [ 74.27055556, 30.64333333 ] } },
{ "type": "Feature", "properties": { "GmlID": "RF_Station.7805", "objectid": 7805, "station_id": "null", "lat": 30.67611111, "telemetry": 2, "agency_id": 121, "state_name": "Punjab", "state_code": "PB", "block_name": "Moga", "block_code": "null", "basin_name": "Indus (Up to border) Basin", "basin_code": "null", "sub_basin1": "null", "created_da": "12/18/2019", "remarks": 0.0, "remarks1": "null", "remarks2": "null", "remarks3": "null", "class": "null", "year": "null", "param": "null", "station_code": "MGA-02/38", "station_name": "RANIA", "station_type": "Surface Water", "agency_name": "Punjab Irrigation(New)", "district_name": "Moga", "district_code": "null", "sub_basin_name": "Sutlaj Lower", "created_date": "12/18/2019", "station_data_type_new": "MPA", "long": 75.25333333 }, "geometry": { "type": "Point", "coordinates": [ 75.25333333, 30.67611111 ] } },
{ "type": "Feature", "properties": { "GmlID": "RF_Station.7807", "objectid": 7807, "station_id": "null", "lat": 30.7177161, "telemetry": 1, "agency_id": 121, "state_name": "Punjab", "state_code": "PB", "block_name": "Khanna", "block_code": "null", "basin_name": "Indus (Up to border) Basin", "basin_code": "null", "sub_basin1": "null", "created_da": "1/25/2021", "remarks": null, "remarks1": "null", "remarks2": "null", "remarks3": "null", "class": "null", "year": "null", "param": "null", "station_code": "PBSW0002", "station_name": "Bhattian", "station_type": "Surface Water", "agency_name": "Punjab Irrigation(New)", "district_name": "Ludhiana", "district_code": "null", "sub_basin_name": "Sutlaj Lower", "created_date": "1/25/2021", "station_data_type_new": "GPC,GWS,GW2,GOR,GPR,GBD,GHS,GTA", "long": 76.196816 }, "geometry": { "type": "Point", "coordinates": [ 76.196816, 30.7177161 ] } },
{ "type": "Feature", "properties": { "GmlID": "RF_Station.7809", "objectid": 7809, "station_id": "null", "lat": 30.68527778, "telemetry": 2, "agency_id": 121, "state_name": "Punjab", "state_code": "PB", "block_name": "Faridkot", "block_code": "null", "basin_name": "Indus (Up to border) Basin", "basin_code": "null", "sub_basin1": "null", "created_da": "12/18/2019", "remarks": 0.0, "remarks1": "null", "remarks2": "null", "remarks3": "null", "class": "null", "year": "null", "param": "null", "station_code": "FDK-01/48", "station_name": "FARIDKOT", "station_type": "Surface Water", "agency_name": "Punjab Irrigation(New)", "district_name": "Faridkot", "district_code": "null", "sub_basin_name": "Sutlaj Lower", "created_date": "12/18/2019", "station_data_type_new": "MPA", "long": 74.75555556 }, "geometry": { "type": "Point", "coordinates": [ 74.75555556, 30.68527778 ] } },
{ "type": "Feature", "properties": { "GmlID": "RF_Station.7816", "objectid": 7816, "station_id": "null", "lat": 30.81361111, "telemetry": 2, "agency_id": 121, "state_name": "Punjab", "state_code": "PB", "block_name": "Kharar", "block_code": "null", "basin_name": "Indus (Up to border) Basin", "basin_code": "null", "sub_basin1": "null", "created_da": "5/30/2020", "remarks": 0.0, "remarks1": "null", "remarks2": "null", "remarks3": "null", "class": "null", "year": "null", "param": "null", "station_code": "SAS-02/27", "station_name": "JAINTI DAM", "station_type": "Surface Water", "agency_name": "Punjab Irrigation(New)", "district_name": "Mohali", "district_code": "null", "sub_basin_name": "Ghaghar and others", "created_date": "5/30/2020", "station_data_type_new": "MPA", "long": 76.78 }, "geometry": { "type": "Point", "coordinates": [ 76.78, 30.81361111 ] } },
{ "type": "Feature", "properties": { "GmlID": "RF_Station.7817", "objectid": 7817, "station_id": "null", "lat": 30.80444444, "telemetry": 2, "agency_id": 121, "state_name": "Punjab", "state_code": "PB", "block_name": "Khamanon", "block_code": "null", "basin_name": "Indus (Up to border) Basin", "basin_code": "null", "sub_basin1": "null", "created_da": "12/18/2019", "remarks": 0.0, "remarks1": "null", "remarks2": "null", "remarks3": "null", "class": "null", "year": "null", "param": "null", "station_code": "FGS-01/32", "station_name": "KHAMANO", "station_type": "Surface Water", "agency_name": "Punjab Irrigation(New)", "district_name": "Fatehgarh Sahib", "district_code": "null", "sub_basin_name": "Ghaghar and others", "created_date": "12/18/2019", "station_data_type_new": "MPA", "long": 76.34305556 }, "geometry": { "type": "Point", "coordinates": [ 76.34305556, 30.80444444 ] } },
{ "type": "Feature", "properties": { "GmlID": "RF_Station.7818", "objectid": 7818, "station_id": "null", "lat": 30.815, "telemetry": 2, "agency_id": 121, "state_name": "Punjab", "state_code": "PB", "block_name": "Kharar", "block_code": "null", "basin_name": "Indus (Up to border) Basin", "basin_code": "null", "sub_basin1": "null", "created_da": "5/30/2020", "remarks": 0.0, "remarks1": "null", "remarks2": "null", "remarks3": "null", "class": "null", "year": "null", "param": "null", "station_code": "SAS-03/28", "station_name": "PERCH DAM", "station_type": "Surface Water", "agency_name": "Punjab Irrigation(New)", "district_name": "Mohali", "district_code": "null", "sub_basin_name": "Ghaghar and others", "created_date": "5/30/2020", "station_data_type_new": "MPA", "long": 76.80527778 }, "geometry": { "type": "Point", "coordinates": [ 76.80527778, 30.815 ] } },
{ "type": "Feature", "properties": { "GmlID": "RF_Station.7824", "objectid": 7824, "station_id": "null", "lat": 30.8725, "telemetry": 2, "agency_id": 121, "state_name": "Punjab", "state_code": "PB", "block_name": "Ludhiana (East)", "block_code": "null", "basin_name": "Indus (Up to border) Basin", "basin_code": "null", "sub_basin1": "null", "created_da": "12/18/2019", "remarks": 0.0, "remarks1": "null", "remarks2": "null", "remarks3": "null", "class": "null", "year": "null", "param": "null", "station_code": "LDH-01/34", "station_name": "LUDHIANA", "station_type": "Surface Water", "agency_name": "Punjab Irrigation(New)", "district_name": "Ludhiana", "district_code": "null", "sub_basin_name": "Sutlaj Lower", "created_date": "12/18/2019", "station_data_type_new": "MPA", "long": 75.83638889 }, "geometry": { "type": "Point", "coordinates": [ 75.83638889, 30.8725 ] } },
{ "type": "Feature", "properties": { "GmlID": "RF_Station.7826", "objectid": 7826, "station_id": "null", "lat": 30.90055556, "telemetry": 2, "agency_id": 121, "state_name": "Punjab", "state_code": "PB", "block_name": "Kharar", "block_code": "null", "basin_name": "Indus (Up to border) Basin", "basin_code": "null", "sub_basin1": "null", "created_da": "5/29/2020", "remarks": 0.0, "remarks1": "null", "remarks2": "null", "remarks3": "null", "class": "null", "year": "null", "param": "null", "station_code": "SAS-01/26", "station_name": "BUDKI (MIRZAPUR DAM)", "station_type": "Surface Water", "agency_name": "Punjab Irrigation(New)", "district_name": "Mohali", "district_code": "null", "sub_basin_name": "Sutlaj Lower", "created_date": "5/29/2020", "station_data_type_new": "MPA", "long": 76.70916667 }, "geometry": { "type": "Point", "coordinates": [ 76.70916667, 30.90055556 ] } },
{ "type": "Feature", "properties": { "GmlID": "RF_Station.7828", "objectid": 7828, "station_id": "null", "lat": 30.89944444, "telemetry": 2, "agency_id": 121, "state_name": "Punjab", "state_code": "PB", "block_name": "Rupnagar", "block_code": "null", "basin_name": "Indus (Up to border) Basin", "basin_code": "null", "sub_basin1": "null", "created_da": "12/18/2019", "remarks": 0.0, "remarks1": "null", "remarks2": "null", "remarks3": "null", "class": "null", "year": "null", "param": "null", "station_code": "RPR-02/31", "station_name": "CHAMKAUR SAHIB", "station_type": "Surface Water", "agency_name": "Punjab Irrigation(New)", "district_name": "Ropar", "district_code": "null", "sub_basin_name": "Sutlaj Lower", "created_date": "12/18/2019", "station_data_type_new": "MPA", "long": 76.39444444 }, "geometry": { "type": "Point", "coordinates": [ 76.39444444, 30.89944444 ] } },
{ "type": "Feature", "properties": { "GmlID": "RF_Station.7832", "objectid": 7832, "station_id": "null", "lat": 30.92472222, "telemetry": 2, "agency_id": 121, "state_name": "Punjab", "state_code": "PB", "block_name": "Jagraon", "block_code": "null", "basin_name": "Indus (Up to border) Basin", "basin_code": "null", "sub_basin1": "null", "created_da": "5/30/2020", "remarks": 0.0, "remarks1": "null", "remarks2": "null", "remarks3": "null", "class": "null", "year": "null", "param": "null", "station_code": "LDH-02/35", "station_name": "SIDHWAN BET", "station_type": "Surface Water", "agency_name": "Punjab Irrigation(New)", "district_name": "Ludhiana", "district_code": "null", "sub_basin_name": "Sutlaj Lower", "created_date": "5/30/2020", "station_data_type_new": "MPA", "long": 75.30388889 }, "geometry": { "type": "Point", "coordinates": [ 75.30388889, 30.92472222 ] } },
{ "type": "Feature", "properties": { "GmlID": "RF_Station.7834", "objectid": 7834, "station_id": "null", "lat": 30.91583333, "telemetry": 2, "agency_id": 121, "state_name": "Punjab", "state_code": "PB", "block_name": "Firozpur", "block_code": "null", "basin_name": "Indus (Up to border) Basin", "basin_code": "null", "sub_basin1": "null", "created_da": "12/18/2019", "remarks": 0.0, "remarks1": "null", "remarks2": "null", "remarks3": "null", "class": "null", "year": "null", "param": "null", "station_code": "FZR-03/41", "station_name": "FEROZPUR", "station_type": "Surface Water", "agency_name": "Punjab Irrigation(New)", "district_name": "Ferozepur", "district_code": "null", "sub_basin_name": "Sutlaj Lower", "created_date": "12/18/2019", "station_data_type_new": "MPA", "long": 74.58527778 }, "geometry": { "type": "Point", "coordinates": [ 74.58527778, 30.91583333 ] } },
{ "type": "Feature", "properties": { "GmlID": "RF_Station.7835", "objectid": 7835, "station_id": "null", "lat": 30.97972222, "telemetry": 2, "agency_id": 121, "state_name": "Punjab", "state_code": "PB", "block_name": "Rupnagar", "block_code": "null", "basin_name": "Indus (Up to border) Basin", "basin_code": "null", "sub_basin1": "null", "created_da": "12/18/2019", "remarks": 0.0, "remarks1": "null", "remarks2": "null", "remarks3": "null", "class": "null", "year": "null", "param": "null", "station_code": "RPR-01/30", "station_name": "ROOP NAGAR", "station_type": "Surface Water", "agency_name": "Punjab Irrigation(New)", "district_name": "Ropar", "district_code": "null", "sub_basin_name": "Sutlaj Lower", "created_date": "12/18/2019", "station_data_type_new": "MPA", "long": 76.51555556 }, "geometry": { "type": "Point", "coordinates": [ 76.51555556, 30.97972222 ] } },
{ "type": "Feature", "properties": { "GmlID": "RF_Station.7839", "objectid": 7839, "station_id": "null", "lat": 30.98972222, "telemetry": 2, "agency_id": 121, "state_name": "Punjab", "state_code": "PB", "block_name": "Firozpur", "block_code": "null", "basin_name": "Indus (Up to border) Basin", "basin_code": "null", "sub_basin1": "null", "created_da": "12/18/2019", "remarks": 0.0, "remarks1": "null", "remarks2": "null", "remarks3": "null", "class": "null", "year": "null", "param": "null", "station_code": "FZR-02/40", "station_name": "HUSSAINIWALA", "station_type": "Surface Water", "agency_name": "Punjab Irrigation(New)", "district_name": "Ferozepur", "district_code": "null", "sub_basin_name": "Sutlaj Lower", "created_date": "12/18/2019", "station_data_type_new": "MPA", "long": 74.55444444 }, "geometry": { "type": "Point", "coordinates": [ 74.55444444, 30.98972222 ] } },
{ "type": "Feature", "properties": { "GmlID": "RF_Station.7842", "objectid": 7842, "station_id": "null", "lat": 31.04861111, "telemetry": 2, "agency_id": 121, "state_name": "Punjab", "state_code": "PB", "block_name": "Phillaur", "block_code": "null", "basin_name": "Indus (Up to border) Basin", "basin_code": "null", "sub_basin1": "null", "created_da": "5/30/2020", "remarks": 0.0, "remarks1": "null", "remarks2": "null", "remarks3": "null", "class": "null", "year": "null", "param": "null", "station_code": "JLR-01/23", "station_name": "BILGA", "station_type": "Surface Water", "agency_name": "Punjab Irrigation(New)", "district_name": "Jalandhar", "district_code": "null", "sub_basin_name": "Sutlaj Lower", "created_date": "5/30/2020", "station_data_type_new": "MPA", "long": 75.65555556 }, "geometry": { "type": "Point", "coordinates": [ 75.65555556, 31.04861111 ] } },
{ "type": "Feature", "properties": { "GmlID": "RF_Station.7846", "objectid": 7846, "station_id": "null", "lat": 31.05111111, "telemetry": 2, "agency_id": 121, "state_name": "Punjab", "state_code": "PB", "block_name": "Moga", "block_code": "null", "basin_name": "Indus (Up to border) Basin", "basin_code": "null", "sub_basin1": "null", "created_da": "12/18/2019", "remarks": 0.0, "remarks1": "null", "remarks2": "null", "remarks3": "null", "class": "null", "year": "null", "param": "null", "station_code": "MGA-01/37", "station_name": "PANJTOOR", "station_type": "Surface Water", "agency_name": "Punjab Irrigation(New)", "district_name": "Moga", "district_code": "null", "sub_basin_name": "Sutlaj Lower", "created_date": "12/18/2019", "station_data_type_new": "MPA", "long": 75.11472222 }, "geometry": { "type": "Point", "coordinates": [ 75.11472222, 31.05111111 ] } },
{ "type": "Feature", "properties": { "GmlID": "RF_Station.7851", "objectid": 7851, "station_id": "null", "lat": 31.12444444, "telemetry": 2, "agency_id": 121, "state_name": "Punjab", "state_code": "PB", "block_name": "Phillaur", "block_code": "null", "basin_name": "Indus (Up to border) Basin", "basin_code": "null", "sub_basin1": "null", "created_da": "5/30/2020", "remarks": 0.0, "remarks1": "null", "remarks2": "null", "remarks3": "null", "class": "null", "year": "null", "param": "null", "station_code": "JLR-03/25", "station_name": "GORAYA", "station_type": "Surface Water", "agency_name": "Punjab Irrigation(New)", "district_name": "Jalandhar", "district_code": "null", "sub_basin_name": "Sutlaj Lower", "created_date": "5/30/2020", "station_data_type_new": "MPA", "long": 75.6675 }, "geometry": { "type": "Point", "coordinates": [ 75.6675, 31.12444444 ] } },
{ "type": "Feature", "properties": { "GmlID": "RF_Station.7854", "objectid": 7854, "station_id": "null", "lat": 31.17527778, "telemetry": 1, "agency_id": 154, "state_name": "Punjab", "state_code": "PB", "block_name": "Rupnagar", "block_code": "null", "basin_name": "Indus (Up to border) Basin", "basin_code": "null", "sub_basin1": "null", "created_da": "9/16/2019", "remarks": null, "remarks1": "null", "remarks2": "null", "remarks3": "null", "class": "null", "year": "null", "param": "null", "station_code": "738D3648", "station_name": "Lohand_BBMB", "station_type": "Surface Water", "agency_name": "Bhakra Beas Management Board, Chandigarh", "district_name": "Ropar", "district_code": "null", "sub_basin_name": "Sutlaj Lower", "created_date": "9/16/2019", "station_data_type_new": "IQ0,MPM,IPC,HHT,MPC,IC0", "long": 76.57055556 }, "geometry": { "type": "Point", "coordinates": [ 76.57055556, 31.17527778 ] } },
{ "type": "Feature", "properties": { "GmlID": "RF_Station.7856", "objectid": 7856, "station_id": "null", "lat": 31.13583333, "telemetry": 2, "agency_id": 121, "state_name": "Punjab", "state_code": "PB", "block_name": "Zira", "block_code": "null", "basin_name": "Indus (Up to border) Basin", "basin_code": "null", "sub_basin1": "null", "created_da": "12/18/2019", "remarks": 0.0, "remarks1": "null", "remarks2": "null", "remarks3": "null", "class": "null", "year": "null", "param": "null", "station_code": "FZR-01/39", "station_name": "MAKHU AT HARIKE", "station_type": "Surface Water", "agency_name": "Punjab Irrigation(New)", "district_name": "Ferozepur", "district_code": "null", "sub_basin_name": "Sutlaj Lower", "created_date": "12/18/2019", "station_data_type_new": "MPA", "long": 74.94305556 }, "geometry": { "type": "Point", "coordinates": [ 74.94305556, 31.13583333 ] } },
{ "type": "Feature", "properties": { "GmlID": "RF_Station.7867", "objectid": 7867, "station_id": "null", "lat": 31.20361111, "telemetry": 2, "agency_id": 121, "state_name": "Punjab", "state_code": "PB", "block_name": "Raikot", "block_code": "null", "basin_name": "Indus (Up to border) Basin", "basin_code": "null", "sub_basin1": "null", "created_da": "5/30/2020", "remarks": 0.0, "remarks1": "null", "remarks2": "null", "remarks3": "null", "class": "null", "year": "null", "param": "null", "station_code": "TTN-06/13", "station_name": "VALTOHA", "station_type": "Surface Water", "agency_name": "Punjab Irrigation(New)", "district_name": "Ludhiana", "district_code": "null", "sub_basin_name": "Sutlaj Lower", "created_date": "5/30/2020", "station_data_type_new": "MPA", "long": 74.64388889 }, "geometry": { "type": "Point", "coordinates": [ 74.64388889, 31.20361111 ] } },
{ "type": "Feature", "properties": { "GmlID": "RF_Station.7871", "objectid": 7871, "station_id": "null", "lat": 31.29444444, "telemetry": 2, "agency_id": 121, "state_name": "Punjab", "state_code": "PB", "block_name": "Raikot", "block_code": "null", "basin_name": "Indus (Up to border) Basin", "basin_code": "null", "sub_basin1": "null", "created_da": "12/18/2019", "remarks": 0.0, "remarks1": "null", "remarks2": "null", "remarks3": "null", "class": "null", "year": "null", "param": "null", "station_code": "TTN-05/12", "station_name": "MANIHALA", "station_type": "Surface Water", "agency_name": "Punjab Irrigation(New)", "district_name": "Ludhiana", "district_code": "null", "sub_basin_name": "Ravi", "created_date": "12/18/2019", "station_data_type_new": "MPA", "long": 74.76444444000001 }, "geometry": { "type": "Point", "coordinates": [ 74.76444444, 31.29444444 ] } },
{ "type": "Feature", "properties": { "GmlID": "RF_Station.7872", "objectid": 7872, "station_id": "null", "lat": 31.33361111, "telemetry": 2, "agency_id": 121, "state_name": "Punjab", "state_code": "PB", "block_name": "Jalandhar - I", "block_code": "null", "basin_name": "Indus (Up to border) Basin", "basin_code": "null", "sub_basin1": "null", "created_da": "12/18/2019", "remarks": 0.0, "remarks1": "null", "remarks2": "null", "remarks3": "null", "class": "null", "year": "null", "param": "null", "station_code": "JLR-02/24", "station_name": "JALANDHAR", "station_type": "Surface Water", "agency_name": "Punjab Irrigation(New)", "district_name": "Jalandhar", "district_code": "null", "sub_basin_name": "Beas", "created_date": "12/18/2019", "station_data_type_new": "MPA", "long": 75.55916667 }, "geometry": { "type": "Point", "coordinates": [ 75.55916667, 31.33361111 ] } },
{ "type": "Feature", "properties": { "GmlID": "RF_Station.7873", "objectid": 7873, "station_id": "null", "lat": 31.32138889, "telemetry": 2, "agency_id": 121, "state_name": "Punjab", "state_code": "PB", "block_name": "Khadoor Sahib", "block_code": "null", "basin_name": "Indus (Up to border) Basin", "basin_code": "null", "sub_basin1": "null", "created_da": "5/30/2020", "remarks": 0.0, "remarks1": "null", "remarks2": "null", "remarks3": "null", "class": "null", "year": "null", "param": "null", "station_code": "TTN-04/11", "station_name": "DERA SAHIB", "station_type": "Surface Water", "agency_name": "Punjab Irrigation(New)", "district_name": "Tarn Taran", "district_code": "null", "sub_basin_name": "Beas", "created_date": "5/30/2020", "station_data_type_new": "MPA", "long": 75.02611111 }, "geometry": { "type": "Point", "coordinates": [ 75.02611111, 31.32138889 ] } },
{ "type": "Feature", "properties": { "GmlID": "RF_Station.7876", "objectid": 7876, "station_id": "null", "lat": 31.39722222, "telemetry": 1, "agency_id": 154, "state_name": "Punjab", "state_code": "PB", "block_name": "Rupnagar", "block_code": "null", "basin_name": "Indus (Up to border) Basin", "basin_code": "null", "sub_basin1": "null", "created_da": "9/16/2019", "remarks": null, "remarks1": "null", "remarks2": "null", "remarks3": "null", "class": "null", "year": "null", "param": "null", "station_code": "738BC8D0", "station_name": "Nangal_BBMB_duplicate", "station_type": "Surface Water", "agency_name": "Bhakra Beas Management Board, Chandigarh", "district_name": "Ropar", "district_code": "null", "sub_basin_name": "Sutlaj Lower", "created_date": "9/16/2019", "station_data_type_new": "ITA,IBD,MSD,MWA,IC2,HQ2,IWA,MEL,IEP,IHS,IEL,ISD,HHT,MTA,MBD,HH2,IPC,MPC,MHS,IW2,MPM,MW2", "long": 76.3725 }, "geometry": { "type": "Point", "coordinates": [ 76.3725, 31.39722222 ] } },
{ "type": "Feature", "properties": { "GmlID": "RF_Station.7883", "objectid": 7883, "station_id": "null", "lat": 31.42388889, "telemetry": 2, "agency_id": 121, "state_name": "Punjab", "state_code": "PB", "block_name": "Garhshankar", "block_code": "null", "basin_name": "Indus (Up to border) Basin", "basin_code": "null", "sub_basin1": "null", "created_da": "5/30/2020", "remarks": 0.0, "remarks1": "null", "remarks2": "null", "remarks3": "null", "class": "null", "year": "null", "param": "null", "station_code": "HSP-09/22", "station_name": "MAILI DAM", "station_type": "Surface Water", "agency_name": "Punjab Irrigation(New)", "district_name": "Hoshiarpur", "district_code": "null", "sub_basin_name": "Sutlaj Lower", "created_date": "5/30/2020", "station_data_type_new": "MPA", "long": 76.13472222 }, "geometry": { "type": "Point", "coordinates": [ 76.13472222, 31.42388889 ] } },
{ "type": "Feature", "properties": { "GmlID": "RF_Station.7884", "objectid": 7884, "station_id": "null", "lat": 31.39638889, "telemetry": 2, "agency_id": 121, "state_name": "Punjab", "state_code": "PB", "block_name": "Khadoor Sahib", "block_code": "null", "basin_name": "Indus (Up to border) Basin", "basin_code": "null", "sub_basin1": "null", "created_da": "5/30/2020", "remarks": 0.0, "remarks1": "null", "remarks2": "null", "remarks3": "null", "class": "null", "year": "null", "param": "null", "station_code": "TTN-02/09", "station_name": "KHAWASPUR", "station_type": "Surface Water", "agency_name": "Punjab Irrigation(New)", "district_name": "Tarn Taran", "district_code": "null", "sub_basin_name": "Sutlaj Lower", "created_date": "5/30/2020", "station_data_type_new": "MPA", "long": 75.09694444 }, "geometry": { "type": "Point", "coordinates": [ 75.09694444, 31.39638889 ] } },
{ "type": "Feature", "properties": { "GmlID": "RF_Station.7885", "objectid": 7885, "station_id": "null", "lat": 31.41444444, "telemetry": 2, "agency_id": 121, "state_name": "Punjab", "state_code": "PB", "block_name": "Taran Tarn", "block_code": "null", "basin_name": "Indus (Up to border) Basin", "basin_code": "null", "sub_basin1": "null", "created_da": "5/30/2020", "remarks": 0.0, "remarks1": "null", "remarks2": "null", "remarks3": "null", "class": "null", "year": "null", "param": "null", "station_code": "TTN-03/10", "station_name": "RASULPUR", "station_type": "Surface Water", "agency_name": "Punjab Irrigation(New)", "district_name": "Tarn Taran", "district_code": "null", "sub_basin_name": "Sutlaj Lower", "created_date": "5/30/2020", "station_data_type_new": "MPA", "long": 74.94138889 }, "geometry": { "type": "Point", "coordinates": [ 74.94138889, 31.41444444 ] } },
{ "type": "Feature", "properties": { "GmlID": "RF_Station.7895", "objectid": 7895, "station_id": "null", "lat": 31.46833333, "telemetry": 2, "agency_id": 121, "state_name": "Punjab", "state_code": "PB", "block_name": "Taran Tarn", "block_code": "null", "basin_name": "Indus (Up to border) Basin", "basin_code": "null", "sub_basin1": "null", "created_da": "5/30/2020", "remarks": 0.0, "remarks1": "null", "remarks2": "null", "remarks3": "null", "class": "null", "year": "null", "param": "null", "station_code": "TTN-01/08", "station_name": "BHUCHAR", "station_type": "Surface Water", "agency_name": "Punjab Irrigation(New)", "district_name": "Tarn Taran", "district_code": "null", "sub_basin_name": "Ravi", "created_date": "5/30/2020", "station_data_type_new": "MPA", "long": 74.69527778 }, "geometry": { "type": "Point", "coordinates": [ 74.69527778, 31.46833333 ] } },
{ "type": "Feature", "properties": { "GmlID": "RF_Station.7897", "objectid": 7897, "station_id": "null", "lat": 31.52444444, "telemetry": 2, "agency_id": 121, "state_name": "Punjab", "state_code": "PB", "block_name": "Hoshiarpur", "block_code": "null", "basin_name": "Indus (Up to border) Basin", "basin_code": "null", "sub_basin1": "null", "created_da": "5/30/2020", "remarks": 0.0, "remarks1": "null", "remarks2": "null", "remarks3": "null", "class": "null", "year": "null", "param": "null", "station_code": "HSP-08/21", "station_name": "PATIARI DAM", "station_type": "Surface Water", "agency_name": "Punjab Irrigation(New)", "district_name": "Hoshiarpur", "district_code": "null", "sub_basin_name": "Sutlaj Lower", "created_date": "5/30/2020", "station_data_type_new": "MPA", "long": 76.065 }, "geometry": { "type": "Point", "coordinates": [ 76.065, 31.52444444 ] } },
{ "type": "Feature", "properties": { "GmlID": "RF_Station.7900", "objectid": 7900, "station_id": "null", "lat": 31.53555556, "telemetry": 2, "agency_id": 121, "state_name": "Punjab", "state_code": "PB", "block_name": "Hoshiarpur", "block_code": "null", "basin_name": "Indus (Up to border) Basin", "basin_code": "null", "sub_basin1": "null", "created_da": "5/30/2020", "remarks": 0.0, "remarks1": "null", "remarks2": "null", "remarks3": "null", "class": "null", "year": "null", "param": "null", "station_code": "HSP-05/18", "station_name": "HOSHIARPUR", "station_type": "Surface Water", "agency_name": "Punjab Irrigation(New)", "district_name": "Hoshiarpur", "district_code": "null", "sub_basin_name": "Sutlaj Lower", "created_date": "5/30/2020", "station_data_type_new": "MPA", "long": 75.89055556 }, "geometry": { "type": "Point", "coordinates": [ 75.89055556, 31.53555556 ] } },
{ "type": "Feature", "properties": { "GmlID": "RF_Station.7906", "objectid": 7906, "station_id": "null", "lat": 31.60027778, "telemetry": 2, "agency_id": 121, "state_name": "Punjab", "state_code": "PB", "block_name": "Hoshiarpur", "block_code": "null", "basin_name": "Indus (Up to border) Basin", "basin_code": "null", "sub_basin1": "null", "created_da": "12/18/2019", "remarks": 0.0, "remarks1": "null", "remarks2": "null", "remarks3": "null", "class": "null", "year": "null", "param": "null", "station_code": "HSP-06/19", "station_name": "CHOHAL DAM", "station_type": "Surface Water", "agency_name": "Punjab Irrigation(New)", "district_name": "Hoshiarpur", "district_code": "null", "sub_basin_name": "Sutlaj Lower", "created_date": "12/18/2019", "station_data_type_new": "MPA", "long": 75.96722222 }, "geometry": { "type": "Point", "coordinates": [ 75.96722222, 31.60027778 ] } },
{ "type": "Feature", "properties": { "GmlID": "RF_Station.7907", "objectid": 7907, "station_id": "null", "lat": 31.60138889, "telemetry": 2, "agency_id": 121, "state_name": "Punjab", "state_code": "PB", "block_name": "Hoshiarpur", "block_code": "null", "basin_name": "Indus (Up to border) Basin", "basin_code": "null", "sub_basin1": "null", "created_da": "5/30/2020", "remarks": 0.0, "remarks1": "null", "remarks2": "null", "remarks3": "null", "class": "null", "year": "null", "param": "null", "station_code": "HSP-07/20", "station_name": "SALERAN DAM", "station_type": "Surface Water", "agency_name": "Punjab Irrigation(New)", "district_name": "Hoshiarpur", "district_code": "null", "sub_basin_name": "Sutlaj Lower", "created_date": "5/30/2020", "station_data_type_new": "MPA", "long": 75.99027778 }, "geometry": { "type": "Point", "coordinates": [ 75.99027778, 31.60138889 ] } },
{ "type": "Feature", "properties": { "GmlID": "RF_Station.7918", "objectid": 7918, "station_id": "null", "lat": 31.67, "telemetry": 2, "agency_id": 121, "state_name": "Punjab", "state_code": "PB", "block_name": "Hoshiarpur", "block_code": "null", "basin_name": "Indus (Up to border) Basin", "basin_code": "null", "sub_basin1": "null", "created_da": "5/30/2020", "remarks": 0.0, "remarks1": "null", "remarks2": "null", "remarks3": "null", "class": "null", "year": "null", "param": "null", "station_code": "HSP-04/17", "station_name": "DAMSAL DAM", "station_type": "Surface Water", "agency_name": "Punjab Irrigation(New)", "district_name": "Hoshiarpur", "district_code": "null", "sub_basin_name": "Beas", "created_date": "5/30/2020", "station_data_type_new": "MPA", "long": 75.95111111 }, "geometry": { "type": "Point", "coordinates": [ 75.95111111, 31.67 ] } },
{ "type": "Feature", "properties": { "GmlID": "RF_Station.7923", "objectid": 7923, "station_id": "null", "lat": 31.68388889, "telemetry": 2, "agency_id": 121, "state_name": "Punjab", "state_code": "PB", "block_name": "Gurdaspur", "block_code": "null", "basin_name": "Indus (Up to border) Basin", "basin_code": "null", "sub_basin1": "null", "created_da": "5/30/2020", "remarks": 0.0, "remarks1": "null", "remarks2": "null", "remarks3": "null", "class": "null", "year": "null", "param": "null", "station_code": "GSP-03/06", "station_name": "ATHWAL", "station_type": "Surface Water", "agency_name": "Punjab Irrigation(New)", "district_name": "Gurdaspur", "district_code": "null", "sub_basin_name": "Beas", "created_date": "5/30/2020", "station_data_type_new": "MPA", "long": 75.33833333 }, "geometry": { "type": "Point", "coordinates": [ 75.33833333, 31.68388889 ] } },
{ "type": "Feature", "properties": { "GmlID": "RF_Station.7924", "objectid": 7924, "station_id": "null", "lat": 31.70138889, "telemetry": 2, "agency_id": 121, "state_name": "Punjab", "state_code": "PB", "block_name": "Hoshiarpur", "block_code": "null", "basin_name": "Indus (Up to border) Basin", "basin_code": "null", "sub_basin1": "null", "created_da": "5/30/2020", "remarks": 0.0, "remarks1": "null", "remarks2": "null", "remarks3": "null", "class": "null", "year": "null", "param": "null", "station_code": "HSP-03/16", "station_name": "JANAURI DAM", "station_type": "Surface Water", "agency_name": "Punjab Irrigation(New)", "district_name": "Hoshiarpur", "district_code": "null", "sub_basin_name": "Beas", "created_date": "5/30/2020", "station_data_type_new": "MPA", "long": 75.90305556 }, "geometry": { "type": "Point", "coordinates": [ 75.90305556, 31.70138889 ] } },
{ "type": "Feature", "properties": { "GmlID": "RF_Station.7929", "objectid": 7929, "station_id": "null", "lat": 31.74, "telemetry": 2, "agency_id": 121, "state_name": "Punjab", "state_code": "PB", "block_name": "Hoshiarpur", "block_code": "null", "basin_name": "Indus (Up to border) Basin", "basin_code": "null", "sub_basin1": "null", "created_da": "5/30/2020", "remarks": 0.0, "remarks1": "null", "remarks2": "null", "remarks3": "null", "class": "null", "year": "null", "param": "null", "station_code": "HSP-02/15", "station_name": "DHOLBAHA", "station_type": "Surface Water", "agency_name": "Punjab Irrigation(New)", "district_name": "Hoshiarpur", "district_code": "null", "sub_basin_name": "Beas", "created_date": "5/30/2020", "station_data_type_new": "MPA", "long": 75.88722222 }, "geometry": { "type": "Point", "coordinates": [ 75.88722222, 31.74 ] } },
{ "type": "Feature", "properties": { "GmlID": "RF_Station.7936", "objectid": 7936, "station_id": "null", "lat": 31.75833333, "telemetry": 2, "agency_id": 121, "state_name": "Punjab", "state_code": "PB", "block_name": "Ajnala", "block_code": "null", "basin_name": "Indus (Up to border) Basin", "basin_code": "null", "sub_basin1": "null", "created_da": "5/30/2020", "remarks": 0.0, "remarks1": "null", "remarks2": "null", "remarks3": "null", "class": "null", "year": "null", "param": "null", "station_code": "ASR-01/07", "station_name": "RANEWALI", "station_type": "Surface Water", "agency_name": "Punjab Irrigation(New)", "district_name": "Amritsar", "district_code": "null", "sub_basin_name": "Ravi", "created_date": "5/30/2020", "station_data_type_new": "MPA", "long": 74.82055556 }, "geometry": { "type": "Point", "coordinates": [ 74.82055556, 31.75833333 ] } },
{ "type": "Feature", "properties": { "GmlID": "RF_Station.7947", "objectid": 7947, "station_id": "null", "lat": 31.90722222, "telemetry": 2, "agency_id": 121, "state_name": "Punjab", "state_code": "PB", "block_name": "Gurdaspur", "block_code": "null", "basin_name": "Indus (Up to border) Basin", "basin_code": "null", "sub_basin1": "null", "created_da": "5/30/2020", "remarks": 0.0, "remarks1": "null", "remarks2": "null", "remarks3": "null", "class": "null", "year": "null", "param": "null", "station_code": "GSP-02/05", "station_name": "SATHIALI", "station_type": "Surface Water", "agency_name": "Punjab Irrigation(New)", "district_name": "Gurdaspur", "district_code": "null", "sub_basin_name": "Ravi", "created_date": "5/30/2020", "station_data_type_new": "MPA", "long": 75.42194444 }, "geometry": { "type": "Point", "coordinates": [ 75.42194444, 31.90722222 ] } },
{ "type": "Feature", "properties": { "GmlID": "RF_Station.7953", "objectid": 7953, "station_id": "null", "lat": 31.9525, "telemetry": 2, "agency_id": 121, "state_name": "Punjab", "state_code": "PB", "block_name": "Mukerian", "block_code": "null", "basin_name": "Indus (Up to border) Basin", "basin_code": "null", "sub_basin1": "null", "created_da": "5/30/2020", "remarks": 0.0, "remarks1": "null", "remarks2": "null", "remarks3": "null", "class": "null", "year": "null", "param": "null", "station_code": "HSP-01/14", "station_name": "TALWARA", "station_type": "Surface Water", "agency_name": "Punjab Irrigation(New)", "district_name": "Hoshiarpur", "district_code": "null", "sub_basin_name": "Beas", "created_date": "5/30/2020", "station_data_type_new": "MPA", "long": 75.89166667000001 }, "geometry": { "type": "Point", "coordinates": [ 75.89166667, 31.9525 ] } },
{ "type": "Feature", "properties": { "GmlID": "RF_Station.7955", "objectid": 7955, "station_id": "null", "lat": 31.97027778, "telemetry": 1, "agency_id": 154, "state_name": "Punjab", "state_code": "PB", "block_name": "Dasua", "block_code": "null", "basin_name": "Indus (Up to border) Basin", "basin_code": "null", "sub_basin1": "null", "created_da": "9/16/2019", "remarks": null, "remarks1": "null", "remarks2": "null", "remarks3": "null", "class": "null", "year": "null", "param": "null", "station_code": "738B98AC", "station_name": "Pong Dam_BBMB", "station_type": "Surface Water", "agency_name": "Bhakra Beas Management Board, Chandigarh", "district_name": "Hoshiarpur", "district_code": "null", "sub_basin_name": "Beas", "created_date": "9/16/2019", "station_data_type_new": "ISD,MBD,MHS,MWA,IEP,ITA,HHT,IHS,IWA,MEL,IBD,MPM,MW2,IW2,MPC,MSD,IPC,MTA,IEL", "long": 75.94638889 }, "geometry": { "type": "Point", "coordinates": [ 75.94638889, 31.97027778 ] } },
{ "type": "Feature", "properties": { "GmlID": "RF_Station.7959", "objectid": 7959, "station_id": "null", "lat": 32.00166667, "telemetry": 2, "agency_id": 121, "state_name": "Punjab", "state_code": "PB", "block_name": "Gurdaspur", "block_code": "null", "basin_name": "Indus (Up to border) Basin", "basin_code": "null", "sub_basin1": "null", "created_da": "5/30/2020", "remarks": 0.0, "remarks1": "null", "remarks2": "null", "remarks3": "null", "class": "null", "year": "null", "param": "null", "station_code": "GSP-01/04", "station_name": "TIBRI", "station_type": "Surface Water", "agency_name": "Punjab Irrigation(New)", "district_name": "Gurdaspur", "district_code": "null", "sub_basin_name": "Ravi", "created_date": "5/30/2020", "station_data_type_new": "MPA", "long": 75.44638889 }, "geometry": { "type": "Point", "coordinates": [ 75.44638889, 32.00166667 ] } },
{ "type": "Feature", "properties": { "GmlID": "RF_Station.7966", "objectid": 7966, "station_id": "null", "lat": 32.16055556, "telemetry": 2, "agency_id": 121, "state_name": "Punjab", "state_code": "PB", "block_name": "Pathankot", "block_code": "null", "basin_name": "Indus (Up to border) Basin", "basin_code": "null", "sub_basin1": "null", "created_da": "5/30/2020", "remarks": 0.0, "remarks1": "null", "remarks2": "null", "remarks3": "null", "class": "null", "year": "null", "param": "null", "station_code": "PTK-03/03", "station_name": "BHIMPUR", "station_type": "Surface Water", "agency_name": "Punjab Irrigation(New)", "district_name": "Pathankot", "district_code": "null", "sub_basin_name": "Ravi", "created_date": "5/30/2020", "station_data_type_new": "MPA", "long": 75.55972222 }, "geometry": { "type": "Point", "coordinates": [ 75.55972222, 32.16055556 ] } },
{ "type": "Feature", "properties": { "GmlID": "RF_Station.7968", "objectid": 7968, "station_id": "null", "lat": 32.286335, "telemetry": 1, "agency_id": 121, "state_name": "Punjab", "state_code": "PB", "block_name": "Pathankot", "block_code": "null", "basin_name": "Indus (Up to border) Basin", "basin_code": "null", "sub_basin1": "null", "created_da": "1/25/2021", "remarks": null, "remarks1": "null", "remarks2": "null", "remarks3": "null", "class": "null", "year": "null", "param": "null", "station_code": "PBSW0001", "station_name": "Malikpur", "station_type": "Surface Water", "agency_name": "Punjab Irrigation(New)", "district_name": "Gurdaspur", "district_code": "null", "sub_basin_name": "Ravi", "created_date": "1/25/2021", "station_data_type_new": "GPR,GWS,GW2,GHS,GBD,GPC,GOR,GTA", "long": 75.600099 }, "geometry": { "type": "Point", "coordinates": [ 75.600099, 32.286335 ] } },
{ "type": "Feature", "properties": { "GmlID": "RF_Station.7976", "objectid": 7976, "station_id": "null", "lat": 32.3725, "telemetry": 2, "agency_id": 121, "state_name": "Punjab", "state_code": "PB", "block_name": "Pathankot", "block_code": "null", "basin_name": "Indus (Up to border) Basin", "basin_code": "null", "sub_basin1": "null", "created_da": "5/30/2020", "remarks": 0.0, "remarks1": "null", "remarks2": "null", "remarks3": "null", "class": "null", "year": "null", "param": "null", "station_code": "PTK-02/02", "station_name": "MADHOPUR", "station_type": "Surface Water", "agency_name": "Punjab Irrigation(New)", "district_name": "Pathankot", "district_code": "null", "sub_basin_name": "Ravi", "created_date": "5/30/2020", "station_data_type_new": "MPA", "long": 75.60444444 }, "geometry": { "type": "Point", "coordinates": [ 75.60444444, 32.3725 ] } },
{ "type": "Feature", "properties": { "GmlID": "RF_Station.7978", "objectid": 7978, "station_id": "null", "lat": 32.44555556, "telemetry": 2, "agency_id": 121, "state_name": "Punjab", "state_code": "PB", "block_name": "Pathankot", "block_code": "null", "basin_name": "Indus (Up to border) Basin", "basin_code": "null", "sub_basin1": "null", "created_da": "12/18/2019", "remarks": 0.0, "remarks1": "null", "remarks2": "null", "remarks3": "null", "class": "null", "year": "null", "param": "null", "station_code": "PTK-01/01", "station_name": "RANJIT SAGAR DAM", "station_type": "Surface Water", "agency_name": "Punjab Irrigation(New)", "district_name": "Pathankot", "district_code": "null", "sub_basin_name": "Ravi", "created_date": "12/18/2019", "station_data_type_new": "MPA", "long": 75.73555556 }, "geometry": { "type": "Point", "coordinates": [ 75.73555556, 32.44555556 ] } }
]
}
